[{"OBJECT_NAME":"IRIDIUM 145","OBJECT_ID":"2018-030E","EPOCH":"2026-03-09T23:33:38.409120","MEAN_MOTION":14.34213927,"ECCENTRICITY":0.00019039,"INCLINATION":86.4013,"RA_OF_ASC_NODE":331.8973,"ARG_OF_PERICENTER":94.1139,"MEAN_ANOMALY":266.0275,"EPHEMERIS_TYPE":0,"CLASSIFICATION_TYPE":"U","NORAD_CAT_ID":43253,"ELEMENT_SET_NO":999,"REV_AT_EPOCH":41590,"BSTAR":0.00011521042,"MEAN_MOTION_DOT":3.42e-6,"MEAN_MOTION_DDOT":0},{"OBJECT_NAME":"METEOR 2-5 DEB","OBJECT_ID":"1979-095CE","EPOCH":"2026-03-06T23:25:56.036928","MEAN_MOTION":14.33292715,"ECCENTRICITY":0.00111611,"INCLINATION":81.1989,"RA_OF_ASC_NODE":266.9519,"ARG_OF_PERICENTER":2.3192,"MEAN_ANOMALY":357.8041,"EPHEMERIS_TYPE":0,"CLASSIFICATION_TYPE":"U","NORAD_CAT_ID":39603,"ELEMENT_SET_NO":999,"REV_AT_EPOCH":62882,"BSTAR":0.0015998335,"MEAN_MOTION_DOT":4.419e-5,"MEAN_MOTION_DDOT":0}]
